GLOBALSTAR M068         
1 32266U 07048D   24203.48192503 -.00000046  00000+0  32157-3 0  9992
2 32266  51.9860 230.3350 0001068 136.1367  11.7019 12.62794844776060
GLOBALSTAR M079         
1 37188U 10054A   24202.93966046 -.00000080  00000+0  13524-3 0  9996
2 37188  52.0044  68.1561 0000582  54.7412 318.9176 12.62261790634621
GLOBALSTAR M074         
1 37189U 10054B   24202.88703171 -.00000083  00000+0  11596-3 0  9999
2 37189  52.0022  67.6911 0000802  67.7743 305.9083 12.62270489635222
GLOBALSTAR M076         
1 37190U 10054C   24202.91336907 -.00000081  00000+0  12633-3 0  9995
2 37190  52.0036  67.7518 0000908  41.8497 331.6472 12.62253729634943
GLOBALSTAR M077         
1 37191U 10054D   24202.82088150 -.00000096  00000+0  44799-4 0  9995
2 37191  52.0085  24.7933 0000896  86.4625 286.8537 12.62261399635302
GLOBALSTAR M075         
1 37192U 10054E   24203.19735094 -.00000080  00000+0  13063-3 0  9995
2 37192  51.9946 109.3284 0000524  49.5859 115.1045 12.62261894634579
GLOBALSTAR M073         
1 37193U 10054F   24203.27867659 -.00000094  00000+0  53868-4 0  9991
2 37193  52.0080  22.6485 0000846  75.8256  97.5220 12.62267198636091
GLOBALSTAR M083         
1 37739U 11033A   24203.13266948 -.00000084  00000+0  11275-3 0  9998
2 37739  51.9881 332.2757 0000644 121.8383  49.3843 12.62262496605408
GLOBALSTAR M088         
1 37740U 11033B   24202.86859105 -.00000066  00000+0  20808-3 0  9994
2 37740  51.9714 238.8506 0000294 185.2511 345.5410 12.62265461600553
GLOBALSTAR M091         
1 37741U 11033C   24202.72387889 -.00000100  00000+0  18469-4 0  9995
2 37741  51.9969 202.2543 0000286 218.7147 312.6264 12.62264863601323
GLOBALSTAR M085         
1 37742U 11033D   24202.84974267 -.00000107  00000+0 -20032-4 0  9998
2 37742  51.9854 153.2000 0000122   0.9490  84.0616 12.62263510601858
GLOBALSTAR M081         
1 37743U 11033E   24202.65775593 -.00000118  00000+0 -79155-4 0  9991
2 37743  51.9943 156.3679 0000342 331.4949 200.0052 12.62267028601974
GLOBALSTAR M089         
1 37744U 11033F   24203.25347330 -.00000091  00000+0  69317-4 0  9991
2 37744  51.9928 108.8471 0000883  38.4033 139.9712 12.62266042603147
GLOBALSTAR M084         
1 38040U 11080A   24203.56156416 -.00000088  00000+0  88635-4 0  9990
2 38040  52.0030 335.0200 0000941  91.3285 349.0409 12.62264414581197
GLOBALSTAR M080         
1 38041U 11080B   24202.91688793 -.00000094  00000+0  52659-4 0  9991
2 38041  52.0082 338.4725 0000851  74.5737  75.1671 12.62262956580959
GLOBALSTAR M082         
1 38042U 11080C   24203.21835965 -.00000085  00000+0  10396-3 0  9992
2 38042  52.0087 292.9680 0000972 153.8269 226.4138 12.62263996581870
GLOBALSTAR M092         
1 38043U 11080D   24203.22513328 -.00000082  00000+0  12339-3 0  9996
2 38043  52.0102  23.3032 0000976  86.6292  84.6187 12.62263891580364
GLOBALSTAR M090         
1 38044U 11080E   24203.49364269 -.00000054  00000+0  27985-3 0  9996
2 38044  51.9890 286.3651 0000679 148.3238 283.0157 12.62265067581899
GLOBALSTAR M086         
1 38045U 11080F   24203.44281350 -.00000076  00000+0  15672-3 0  9995
2 38045  51.9902 287.0442 0000367 301.1734 139.8670 12.62264554581892
GLOBALSTAR M097         
1 39072U 13005A   24203.45196259 -.00000104  00000+0  11330-5 0  9990
2 39072  52.0019 201.2284 0000187 255.0695 105.0151 12.62269126529126
GLOBALSTAR M093         
1 39073U 13005B   24203.42508123 -.00000104  00000+0 -20785-5 0  9990
2 39073  51.9784 195.1392 0000319 264.1763  95.9067 12.62276122529115
GLOBALSTAR M094         
1 39074U 13005C   24202.94999221 -.00000109  00000+0 -27785-4 0  9991
2 39074  51.9957 110.6367 0000457  20.3022 339.7863 12.62286415530543
GLOBALSTAR M096         
1 39075U 13005D   24203.20077716 -.00000109  00000+0 -29539-4 0  9997
2 39075  52.0058 158.1289 0000186 300.6193  59.4655 12.62267714529847
GLOBALSTAR M078         
1 39076U 13005E   24202.85774062 -.00000076  00000+0  15580-3 0  9998
2 39076  51.9853 244.1368 0001231 156.5053 203.5870 12.62273343528078
GLOBALSTAR M095         
1 39077U 13005F   24203.43813702 -.00000064  00000+0  22318-3 0  9993
2 39077  51.9779 239.7280 0000802 189.4141 170.6711 12.62262634528366
GLOBALSTAR M087         
1 52888U 22064A   24202.95820195 -.00000072  00000+0  10720-3 0  9996
2 52888  51.9760  90.6231 0010049  88.8013 271.4039 13.37578916102047
